KUIPER-00136            
1 65962U 25228R   26002.75002314 -.01025321  00000+0 -76886-1 0  9990
2 65962  51.8932 281.4578 0005469 124.2424 214.4301 15.05009092  3263
KUIPER-00137            
1 65963U 25228S   26002.75002314 -.01018647  00000+0 -57938-1 0  9991
2 65963  51.8900 280.2438 0005055 112.5529 193.3387 15.15422753  3799
KUIPER-00138            
1 65964U 25228T   26002.75002314 -.00322077  00000+0 -13344-1 0  9999
2 65964  51.8850 279.5788 0008545 109.2669 152.8897 15.24786345  5246
KUIPER-00140            
1 65965U 25228U   26002.75002314 -.00968485  00000+0 -56254-1 0  9996
2 65965  51.8890 280.5539 0006297  99.3372 354.3467 15.14523712  5573
KUIPER-00141            
1 65966U 25228V   26002.75002314 -.00745384  00000+0 -26434-1 0  9995
2 65966  51.8801 279.0245 0003766 121.0282  32.1591 15.30853046  4778
KUIPER-00146            
1 65967U 25228W   26002.75002314 -.00943183  00000+0 -39615-1 0  9998
2 65967  51.8840 279.5442 0006357 110.2776 142.7933 15.25505393  5269
KUIPER-00149            
1 65968U 25228X   26002.19613340  .00056344  00000+0  15481-2 0  9992
2 65968  51.8793 281.6665 0005662  95.8577 264.3055 15.36662278 13569
KUIPER-00154            
1 65969U 25228Y   26002.07126927  .00060031  00000+0  16543-2 0  9998
2 65969  51.8782 282.3253 0006641  81.4088 278.7651 15.36535507 13548
